[
    {
        "Altitude(m)": 706857.1377313519,
        "Argument of Periapsis(deg)": 0.009112096949301655,
        "Eccentricity": 0.0,
        "Inclination(deg)": 45.0,
        "Latitude(deg)": 43.15098498442892,
        "Longitude(deg)": -146.7978083158139,
        "Mean Anomaly(deg)": 74.68107331798467,
        "RAAN(deg)": 244.99139844683344,
        "Satellite Name": "Constellation 1 1082",
        "Satellite Number": 1082,
        "Semi-Major Axis(m)": 7083131.272910544,
        "Time(s)": 152
    },
    {
        "Altitude(m)": 706860.602763498,
        "Argument of Periapsis(deg)": 0.009172044955547059,
        "Eccentricity": 0.0,
        "Inclination(deg)": 45.0,
        "Latitude(deg)": 43.16650527461043,
        "Longitude(deg)": -146.72161902061939,
        "Mean Anomaly(deg)": 74.7417744582345,
        "RAAN(deg)": 244.9913418576679,
        "Satellite Name": "Constellation 1 1082",
        "Satellite Number": 1082,
        "Semi-Major Axis(m)": 7083131.272910544,
        "Time(s)": 153
    },
    {
        "Altitude(m)": 706864.0557874095,
        "Argument of Periapsis(deg)": 0.009231992961792466,
        "Eccentricity": 0.0,
        "Inclination(deg)": 45.0,
        "Latitude(deg)": 43.181969162184394,
        "Longitude(deg)": -146.64538916022468,
        "Mean Anomaly(deg)": 74.80247559848448,
        "RAAN(deg)": 244.99128526850234,
        "Satellite Name": "Constellation 1 1082",
        "Satellite Number": 1082,
        "Semi-Major Axis(m)": 7083131.272910544,
        "Time(s)": 154
    },
    {
        "Altitude(m)": 706867.4967826763,
        "Argument of Periapsis(deg)": 0.009291940968037872,
        "Eccentricity": 0.0,
        "Inclination(deg)": 45.0,
        "Latitude(deg)": 43.19737658876022,
        "Longitude(deg)": -146.56911884005132,
        "Mean Anomaly(deg)": 74.86317673873432,
        "RAAN(deg)": 244.99122867933679,
        "Satellite Name": "Constellation 1 1082",
        "Satellite Number": 1082,
        "Semi-Major Axis(m)": 7083131.272910544,
        "Time(s)": 155
    },
    {
        "Altitude(m)": 706870.9257289625,
        "Argument of Periapsis(deg)": 0.009351888974283276,
        "Eccentricity": 0.0,
        "Inclination(deg)": 45.0,
        "Latitude(deg)": 43.21272749608612,
        "Longitude(deg)": -146.49280833417959,
        "Mean Anomaly(deg)": 74.92387787898426,
        "RAAN(deg)": 244.99117209017118,
        "Satellite Name": "Constellation 1 1082",
        "Satellite Number": 1082,
        "Semi-Major Axis(m)": 7083131.272910544,
        "Time(s)": 156
    },
    {
        "Altitude(m)": 706874.3426060159,
        "Argument of Periapsis(deg)": 0.00941183698052868,
        "Eccentricity": 0.0,
        "Inclination(deg)": 45.0,
        "Latitude(deg)": 43.22802182604871,
        "Longitude(deg)": -146.4164574129619,
        "Mean Anomaly(deg)": 74.98457901923415,
        "RAAN(deg)": 244.99111550100562,
        "Satellite Name": "Constellation 1 1082",
        "Satellite Number": 1082,
        "Semi-Major Axis(m)": 7083131.272910544,
        "Time(s)": 157
    },
    {
        "Altitude(m)": 706877.7473936469,
        "Argument of Periapsis(deg)": 0.009471784986774088,
        "Eccentricity": 0.0,
        "Inclination(deg)": 45.0,
        "Latitude(deg)": 43.24325952067577,
        "Longitude(deg)": -146.3400663516025,
        "Mean Anomaly(deg)": 75.04528015948404,
        "RAAN(deg)": 244.99105891184004,
        "Satellite Name": "Constellation 1 1082",
        "Satellite Number": 1082,
        "Semi-Major Axis(m)": 7083131.272910544,
        "Time(s)": 158
    },
    {
        "Altitude(m)": 706881.1400717444,
        "Argument of Periapsis(deg)": 0.009531732993019492,
        "Eccentricity": 0.0,
        "Inclination(deg)": 45.0,
        "Latitude(deg)": 43.25844052213596,
        "Longitude(deg)": -146.26363525777043,
        "Mean Anomaly(deg)": 75.10598129973391,
        "RAAN(deg)": 244.9910023226745,
        "Satellite Name": "Constellation 1 1082",
        "Satellite Number": 1082,
        "Semi-Major Axis(m)": 7083131.272910544,
        "Time(s)": 159
    },
    {
        "Altitude(m)": 706884.5206202649,
        "Argument of Periapsis(deg)": 0.009591680999264898,
        "Eccentricity": 0.0,
        "Inclination(deg)": 45.0,
        "Latitude(deg)": 43.27356477274008,
        "Longitude(deg)": -146.18716423969587,
        "Mean Anomaly(deg)": 75.1666824399838,
        "RAAN(deg)": 244.99094573350894,
        "Satellite Name": "Constellation 1 1082",
        "Satellite Number": 1082,
        "Semi-Major Axis(m)": 7083131.272910544,
        "Time(s)": 160
    },
    {
        "Altitude(m)": 706887.8890192513,
        "Argument of Periapsis(deg)": 0.009651629005510304,
        "Eccentricity": 0.0,
        "Inclination(deg)": 45.0,
        "Latitude(deg)": 43.28863221494194,
        "Longitude(deg)": -146.11065340616966,
        "Mean Anomaly(deg)": 75.22738358023373,
        "RAAN(deg)": 244.99088914434333,
        "Satellite Name": "Constellation 1 1082",
        "Satellite Number": 1082,
        "Semi-Major Axis(m)": 7083131.272910544,
        "Time(s)": 161
    },
    {
        "Altitude(m)": 706891.245248806,
        "Argument of Periapsis(deg)": 0.00971157701175571,
        "Eccentricity": 0.0,
        "Inclination(deg)": 45.0,
        "Latitude(deg)": 43.30364279133922,
        "Longitude(deg)": -146.03410286654284,
        "Mean Anomaly(deg)": 75.28808472048362,
        "RAAN(deg)": 244.99083255517778,
        "Satellite Name": "Constellation 1 1082",
        "Satellite Number": 1082,
        "Semi-Major Axis(m)": 7083131.272910544,
        "Time(s)": 162
    },
    {
        "Altitude(m)": 706894.5892891177,
        "Argument of Periapsis(deg)": 0.009771525018001118,
        "Eccentricity": 0.0,
        "Inclination(deg)": 45.0,
        "Latitude(deg)": 43.31859644467484,
        "Longitude(deg)": -145.9575128988233,
        "Mean Anomaly(deg)": 75.34878586073351,
        "RAAN(deg)": 244.9907759660122,
        "Satellite Name": "Constellation 1 1082",
        "Satellite Number": 1082,
        "Semi-Major Axis(m)": 7083131.272910544,
        "Time(s)": 163
    },
    {
        "Altitude(m)": 706897.9211204399,
        "Argument of Periapsis(deg)": 0.00983147302424652,
        "Eccentricity": 0.0,
        "Inclination(deg)": 45.0,
        "Latitude(deg)": 43.33349311783662,
        "Longitude(deg)": -145.88088327728738,
        "Mean Anomaly(deg)": 75.40948700098346,
        "RAAN(deg)": 244.99071937684664,
        "Satellite Name": "Constellation 1 1082",
        "Satellite Number": 1082,
        "Semi-Major Axis(m)": 7083131.272910544,
        "Time(s)": 164
    },
    {
        "Altitude(m)": 706901.2407231058,
        "Argument of Periapsis(deg)": 0.009891421030491928,
        "Eccentricity": 0.0,
        "Inclination(deg)": 45.0,
        "Latitude(deg)": 43.34833275385983,
        "Longitude(deg)": -145.80421428106166,
        "Mean Anomaly(deg)": 75.47018814123334,
        "RAAN(deg)": 244.99066278768103,
        "Satellite Name": "Constellation 1 1082",
        "Satellite Number": 1082,
        "Semi-Major Axis(m)": 7083131.272910544,
        "Time(s)": 165
    },
    {
        "Altitude(m)": 706904.548077519,
        "Argument of Periapsis(deg)": 0.009951369036737332,
        "Eccentricity": 0.0,
        "Inclination(deg)": 45.0,
        "Latitude(deg)": 43.36311529592717,
        "Longitude(deg)": -145.72750602173366,
        "Mean Anomaly(deg)": 75.53088928148323,
        "RAAN(deg)": 244.99060619851548,
        "Satellite Name": "Constellation 1 1082",
        "Satellite Number": 1082,
        "Semi-Major Axis(m)": 7083131.272910544,
        "Time(s)": 166
    },
    {
        "Altitude(m)": 706907.8431641645,
        "Argument of Periapsis(deg)": 0.010011317042982738,
        "Eccentricity": 0.0,
        "Inclination(deg)": 45.0,
        "Latitude(deg)": 43.37784068736987,
        "Longitude(deg)": -145.65075861144925,
        "Mean Anomaly(deg)": 75.59159042173312,
        "RAAN(deg)": 244.99054960934993,
        "Satellite Name": "Constellation 1 1082",
        "Satellite Number": 1082,
        "Semi-Major Axis(m)": 7083131.272910544,
        "Time(s)": 167
    },
    {
        "Altitude(m)": 706911.1259635906,
        "Argument of Periapsis(deg)": 0.010071265049228144,
        "Eccentricity": 0.0,
        "Inclination(deg)": 45.0,
        "Latitude(deg)": 43.392508871668475,
        "Longitude(deg)": -145.57397216291187,
        "Mean Anomaly(deg)": 75.65229156198305,
        "RAAN(deg)": 244.99049302018435,
        "Satellite Name": "Constellation 1 1082",
        "Satellite Number": 1082,
        "Semi-Major Axis(m)": 7083131.272910544,
        "Time(s)": 168
    },
    {
        "Altitude(m)": 706914.3964564346,
        "Argument of Periapsis(deg)": 0.01013121305547355,
        "Eccentricity": 0.0,
        "Inclination(deg)": 45.0,
        "Latitude(deg)": 43.407119792454026,
        "Longitude(deg)": -145.4971467893818,
        "Mean Anomaly(deg)": 75.71299270223294,
        "RAAN(deg)": 244.9904364310188,
        "Satellite Name": "Constellation 1 1082",
        "Satellite Number": 1082,
        "Semi-Major Axis(m)": 7083131.272910544,
        "Time(s)": 169
    },
    {
        "Altitude(m)": 706917.6546233931,
        "Argument of Periapsis(deg)": 0.010191161061718957,
        "Eccentricity": 0.0,
        "Inclination(deg)": 45.0,
        "Latitude(deg)": 43.42167339350877,
        "Longitude(deg)": -145.42028260467575,
        "Mean Anomaly(deg)": 75.77369384248281,
        "RAAN(deg)": 244.99037984185318,
        "Satellite Name": "Constellation 1 1082",
        "Satellite Number": 1082,
        "Semi-Major Axis(m)": 7083131.272910544,
        "Time(s)": 170
    }
]